IRIDIUM 116             
1 43072U 17083C   23286.47897153  .00000535  00000+0  18394-3 0  9990
2 43072  86.4036  10.6306 0002382  94.3990 265.7478 14.34216704304031
IRIDIUM 130             
1 43073U 17083D   23286.51702511  .00000649  00000+0  22472-3 0  9997
2 43073  86.4038  10.7942 0002041  92.9353 267.2077 14.34217281303986
IRIDIUM 151             
1 43074U 17083E   23285.79397140  .00000028  00000+0  30034-5 0  9991
2 43074  86.4032  10.9510 0002360  93.3453 266.8013 14.34214993303908
IRIDIUM 134             
1 43075U 17083F   23286.52971270  .00000733  00000+0  25466-3 0  9990
2 43075  86.4033  10.6388 0001955  95.2950 264.8469 14.34217290303975
IRIDIUM 137             
1 43076U 17083G   23286.47262945  .00000216  00000+0  70165-4 0  9990
2 43076  86.4035  10.7358 0002404 101.3044 258.8422 14.34215166304039
IRIDIUM 141             
1 43077U 17083H   23286.53605343  .00000753  00000+0  26193-3 0  9998
2 43077  86.4029  10.5954 0002241  89.9347 270.2105 14.34218642304048
IRIDIUM 153             
1 43078U 17083J   23285.51147032  .00000590  00000+0  20368-3 0  9999
2 43078  86.4002 339.4977 0002354  85.0015 275.1450 14.34217070305000
IRIDIUM 131             
1 43079U 17083K   23286.52336756  .00000658  00000+0  22795-3 0  9996
2 43079  86.4035  10.7214 0002110  90.6951 269.4487 14.34217706303977
